CCSDS_OMM_VERS = 2.0
CREATION_DATE  = 
ORIGINATOR     = 

OBJECT_NAME    = SL-16 R/B
OBJECT_ID      = 1992-093B
CENTER_NAME    = EARTH
REF_FRAME      = TEME
TIME_SYSTEM    = UTC
MEAN_ELEMENT_THEORY = SGP/SGP4

EPOCH          = 2025-11-15T19:38:26.926944
MEAN_MOTION    = 14.15426679
ECCENTRICITY   = .000256
INCLINATION    = 71.0217
RA_OF_ASC_NODE = 243.3062
ARG_OF_PERICENTER = 147.8508
MEAN_ANOMALY   = 212.2771

EPHEMERIS_TYPE = 0
CLASSIFICATION_TYPE = U
NORAD_CAT_ID   = 22285
ELEMENT_SET_NO = 999
REV_AT_EPOCH   = 69704
BSTAR          = .16192E-3
MEAN_MOTION_DOT = .268E-5
MEAN_MOTION_DDOT = 0

CCSDS_OMM_VERS = 2.0
CREATION_DATE  = 
ORIGINATOR     = 

OBJECT_NAME    = COSMOS 2228
OBJECT_ID      = 1992-094A
CENTER_NAME    = EARTH
REF_FRAME      = TEME
TIME_SYSTEM    = UTC
MEAN_ELEMENT_THEORY = SGP/SGP4

EPOCH          = 2025-11-15T19:31:09.698016
MEAN_MOTION    = 14.96557097
ECCENTRICITY   = .0017134
INCLINATION    = 82.5187
RA_OF_ASC_NODE = 346.2977
ARG_OF_PERICENTER = 330.0278
MEAN_ANOMALY   = 29.9962

EPHEMERIS_TYPE = 0
CLASSIFICATION_TYPE = U
NORAD_CAT_ID   = 22286
ELEMENT_SET_NO = 999
REV_AT_EPOCH   = 75902
BSTAR          = .3304E-3
MEAN_MOTION_DOT = .3794E-4
MEAN_MOTION_DDOT = 0

CCSDS_OMM_VERS = 2.0
CREATION_DATE  = 
ORIGINATOR     = 

OBJECT_NAME    = SL-16 R/B
OBJECT_ID      = 1993-016B
CENTER_NAME    = EARTH
REF_FRAME      = TEME
TIME_SYSTEM    = UTC
MEAN_ELEMENT_THEORY = SGP/SGP4

EPOCH          = 2025-11-15T18:38:33.857664
MEAN_MOTION    = 14.15282888
ECCENTRICITY   = .0008957
INCLINATION    = 71.0063
RA_OF_ASC_NODE = 94.4301
ARG_OF_PERICENTER = 146.9860
MEAN_ANOMALY   = 213.1824

EPHEMERIS_TYPE = 0
CLASSIFICATION_TYPE = U
NORAD_CAT_ID   = 22566
ELEMENT_SET_NO = 999
REV_AT_EPOCH   = 68605
BSTAR          = .23908E-3
MEAN_MOTION_DOT = .418E-5
MEAN_MOTION_DDOT = 0

CCSDS_OMM_VERS = 2.0
CREATION_DATE  = 
ORIGINATOR     = 

OBJECT_NAME    = COSMOS 2242
OBJECT_ID      = 1993-024A
CENTER_NAME    = EARTH
REF_FRAME      = TEME
TIME_SYSTEM    = UTC
MEAN_ELEMENT_THEORY = SGP/SGP4

EPOCH          = 2025-11-15T14:44:08.858688
MEAN_MOTION    = 14.95952284
ECCENTRICITY   = .0015526
INCLINATION    = 82.5216
RA_OF_ASC_NODE = 15.7667
ARG_OF_PERICENTER = 333.7601
MEAN_ANOMALY   = 26.2832

EPHEMERIS_TYPE = 0
CLASSIFICATION_TYPE = U
NORAD_CAT_ID   = 22626
ELEMENT_SET_NO = 999
REV_AT_EPOCH   = 76333
BSTAR          = .24564E-3
MEAN_MOTION_DOT = .2782E-4
MEAN_MOTION_DDOT = 0

CCSDS_OMM_VERS = 2.0
CREATION_DATE  = 
ORIGINATOR     = 

OBJECT_NAME    = SL-16 R/B
OBJECT_ID      = 1993-059B
CENTER_NAME    = EARTH
REF_FRAME      = TEME
TIME_SYSTEM    = UTC
MEAN_ELEMENT_THEORY = SGP/SGP4

EPOCH          = 2025-11-15T13:23:29.943744
MEAN_MOTION    = 14.17207639
ECCENTRICITY   = .001635
INCLINATION    = 70.9901
RA_OF_ASC_NODE = 251.8024
ARG_OF_PERICENTER = 16.5766
MEAN_ANOMALY   = 343.5889

EPHEMERIS_TYPE = 0
CLASSIFICATION_TYPE = U
NORAD_CAT_ID   = 22803
ELEMENT_SET_NO = 999
REV_AT_EPOCH   = 66336
BSTAR          = .16504E-3
MEAN_MOTION_DOT = .286E-5
MEAN_MOTION_DDOT = 0

CCSDS_OMM_VERS = 2.0
CREATION_DATE  = 
ORIGINATOR     = 

OBJECT_NAME    = ARIANE 40 R/B
OBJECT_ID      = 1993-061H
CENTER_NAME    = EARTH
REF_FRAME      = TEME
TIME_SYSTEM    = UTC
MEAN_ELEMENT_THEORY = SGP/SGP4

EPOCH          = 2025-11-15T14:13:09.908256
MEAN_MOTION    = 14.32776982
ECCENTRICITY   = .0009649
INCLINATION    = 98.5111
RA_OF_ASC_NODE = 25.6123
ARG_OF_PERICENTER = 260.6375
MEAN_ANOMALY   = 99.3718

EPHEMERIS_TYPE = 0
CLASSIFICATION_TYPE = U
NORAD_CAT_ID   = 22830
ELEMENT_SET_NO = 999
REV_AT_EPOCH   = 67776
BSTAR          = .22218E-3
MEAN_MOTION_DOT = .562E-5
MEAN_MOTION_DDOT = 0

CCSDS_OMM_VERS = 2.0
CREATION_DATE  = 
ORIGINATOR     = 

OBJECT_NAME    = COSMOS 2278
OBJECT_ID      = 1994-023A
CENTER_NAME    = EARTH
REF_FRAME      = TEME
TIME_SYSTEM    = UTC
MEAN_ELEMENT_THEORY = SGP/SGP4

EPOCH          = 2025-11-15T17:32:43.920960
MEAN_MOTION    = 14.14341116
ECCENTRICITY   = .0009879
INCLINATION    = 71.0547
RA_OF_ASC_NODE = 53.5142
ARG_OF_PERICENTER = 214.2554
MEAN_ANOMALY   = 145.7933

EPHEMERIS_TYPE = 0
CLASSIFICATION_TYPE = U
NORAD_CAT_ID   = 23087
ELEMENT_SET_NO = 999
REV_AT_EPOCH   = 62869
BSTAR          = .29352E-3
MEAN_MOTION_DOT = .514E-5
MEAN_MOTION_DDOT = 0

CCSDS_OMM_VERS = 2.0
CREATION_DATE  = 
ORIGINATOR     = 

OBJECT_NAME    = SL-16 R/B
OBJECT_ID      = 1994-023B
CENTER_NAME    = EARTH
REF_FRAME      = TEME
TIME_SYSTEM    = UTC
MEAN_ELEMENT_THEORY = SGP/SGP4

EPOCH          = 2025-11-15T16:31:01.457184
MEAN_MOTION    = 14.14992016
ECCENTRICITY   = .0001281
INCLINATION    = 70.9992
RA_OF_ASC_NODE = 310.2963
ARG_OF_PERICENTER = 154.1505
MEAN_ANOMALY   = 205.9682

EPHEMERIS_TYPE = 0
CLASSIFICATION_TYPE = U
NORAD_CAT_ID   = 23088
ELEMENT_SET_NO = 999
REV_AT_EPOCH   = 62996
BSTAR          = -.53738E-4
MEAN_MOTION_DOT = -.152E-5
MEAN_MOTION_DDOT = 0

CCSDS_OMM_VERS = 2.0
CREATION_DATE  = 
ORIGINATOR     = 

OBJECT_NAME    = SL-16 R/B
OBJECT_ID      = 1994-074B
CENTER_NAME    = EARTH
REF_FRAME      = TEME
TIME_SYSTEM    = UTC
MEAN_ELEMENT_THEORY = SGP/SGP4

EPOCH          = 2025-11-15T13:36:53.983872
MEAN_MOTION    = 14.79245245
ECCENTRICITY   = .0005499
INCLINATION    = 97.7240
RA_OF_ASC_NODE = 349.9476
ARG_OF_PERICENTER = 224.2418
MEAN_ANOMALY   = 287.6127

EPHEMERIS_TYPE = 0
CLASSIFICATION_TYPE = U
NORAD_CAT_ID   = 23343
ELEMENT_SET_NO = 999
REV_AT_EPOCH   = 67037
BSTAR          = .1518E-3
MEAN_MOTION_DOT = .1079E-4
MEAN_MOTION_DDOT = 0

CCSDS_OMM_VERS = 2.0
CREATION_DATE  = 
ORIGINATOR     = 

OBJECT_NAME    = SL-16 R/B
OBJECT_ID      = 1994-077B
CENTER_NAME    = EARTH
REF_FRAME      = TEME
TIME_SYSTEM    = UTC
MEAN_ELEMENT_THEORY = SGP/SGP4

EPOCH          = 2025-11-15T17:08:34.579104
MEAN_MOTION    = 14.15546874
ECCENTRICITY   = .0004163
INCLINATION    = 70.9828
RA_OF_ASC_NODE = 232.2658
ARG_OF_PERICENTER = 306.4050
MEAN_ANOMALY   = 53.6689

EPHEMERIS_TYPE = 0
CLASSIFICATION_TYPE = U
NORAD_CAT_ID   = 23405
ELEMENT_SET_NO = 999
REV_AT_EPOCH   = 60010
BSTAR          = .11841E-3
MEAN_MOTION_DOT = .184E-5
MEAN_MOTION_DDOT = 0

CCSDS_OMM_VERS = 2.0
CREATION_DATE  = 
ORIGINATOR     = 

OBJECT_NAME    = ARIANE 40+ R/B
OBJECT_ID      = 1995-021B
CENTER_NAME    = EARTH
REF_FRAME      = TEME
TIME_SYSTEM    = UTC
MEAN_ELEMENT_THEORY = SGP/SGP4

EPOCH          = 2025-11-15T15:35:39.103296
MEAN_MOTION    = 14.39665621
ECCENTRICITY   = .0007811
INCLINATION    = 98.4684
RA_OF_ASC_NODE = 27.5617
ARG_OF_PERICENTER = 120.1471
MEAN_ANOMALY   = 35.2120

EPHEMERIS_TYPE = 0
CLASSIFICATION_TYPE = U
NORAD_CAT_ID   = 23561
ELEMENT_SET_NO = 999
REV_AT_EPOCH   = 60283
BSTAR          = .24729E-3
MEAN_MOTION_DOT = .73E-5
MEAN_MOTION_DDOT = 0

CCSDS_OMM_VERS = 2.0
CREATION_DATE  = 
ORIGINATOR     = 

OBJECT_NAME    = SL-16 R/B
OBJECT_ID      = 1995-058B
CENTER_NAME    = EARTH
REF_FRAME      = TEME
TIME_SYSTEM    = UTC
MEAN_ELEMENT_THEORY = SGP/SGP4

EPOCH          = 2025-11-15T17:10:28.598592
MEAN_MOTION    = 14.15476626
ECCENTRICITY   = .0014974
INCLINATION    = 71.0228
RA_OF_ASC_NODE = 59.5392
ARG_OF_PERICENTER = 290.0045
MEAN_ANOMALY   = 69.9465

EPHEMERIS_TYPE = 0
CLASSIFICATION_TYPE = U
NORAD_CAT_ID   = 23705
ELEMENT_SET_NO = 999
REV_AT_EPOCH   = 55172
BSTAR          = -.42677E-4
MEAN_MOTION_DOT = -.131E-5
MEAN_MOTION_DDOT = 0

