SL-16 R/B               
1 22285U 92093B   25319.81836721  .00000268  00000+0  16192-3 0  9995
2 22285  71.0217 243.3062 0002560 147.8508 212.2771 14.15426679697048
COSMOS 2228             
1 22286U 92094A   25319.81330669  .00003794  00000+0  33040-3 0  9995
2 22286  82.5187 346.2977 0017134 330.0278  29.9962 14.96557097759023
SL-16 R/B               
1 22566U 93016B   25319.77678076  .00000418  00000+0  23908-3 0  9995
2 22566  71.0063  94.4301 0008957 146.9860 213.1824 14.15282888686057
COSMOS 2242             
1 22626U 93024A   25319.61399142  .00002782  00000+0  24564-3 0  9993
2 22626  82.5216  15.7667 0015526 333.7601  26.2832 14.95952284763332
SL-16 R/B               
1 22803U 93059B   25319.55798546  .00000286  00000+0  16504-3 0  9994
2 22803  70.9901 251.8024 0016350  16.5766 343.5889 14.17207639663365
ARIANE 40 R/B           
1 22830U 93061H   25319.59247579  .00000562  00000+0  22218-3 0  9992
2 22830  98.5111  25.6123 0009649 260.6375  99.3718 14.32776982677767
COSMOS 2278             
1 23087U 94023A   25319.73106390  .00000514  00000+0  29352-3 0  9990
2 23087  71.0547  53.5142 0009879 214.2554 145.7933 14.14341116628691
SL-16 R/B               
1 23088U 94023B   25319.68821131 -.00000152  00000+0 -53738-4 0  9998
2 23088  70.9992 310.2963 0001281 154.1505 205.9682 14.14992016629967
SL-16 R/B               
1 23343U 94074B   25319.56729148  .00001079  00000+0  15180-3 0  9995
2 23343  97.7240 349.9476 0005499 224.2418 287.6127 14.79245245670377
SL-16 R/B               
1 23405U 94077B   25319.71428911  .00000184  00000+0  11841-3 0  9994
2 23405  70.9828 232.2658 0004163 306.4050  53.6689 14.15546874600109
ARIANE 40+ R/B          
1 23561U 95021B   25319.64975814  .00000730  00000+0  24729-3 0  9994
2 23561  98.4684  27.5617 0007811 120.1471  35.2120 14.39665621602834
SL-16 R/B               
1 23705U 95058B   25319.71560878 -.00000131  00000+0 -42677-4 0  9992
2 23705  71.0228  59.5392 0014974 290.0045  69.9465 14.15476626551728
